1 41727U 16049A   23134.05428159  .00000121  00000+0  49897-4 0  9992
2 41727  98.4070 142.5788 0001830  70.2225 289.9169 14.42211341355747